NORAD_CAT_ID,OBJECT_NAME,OBJECT_TYPE,EPOCH,MEAN_MOTION,ECCENTRICITY,INCLINATION,RA_OF_ASC_NODE,ARG_OF_PERICENTER,MEAN_ANOMALY,BSTAR,MEAN_MOTION_DOT,MEAN_MOTION_DDOT,TLE_LINE0,TLE_LINE1,TLE_LINE2,SEMIMAJOR_AXIS,PERIOD,APOGEE,PERIGEE,DECAYED
52603.0,STARLINK-4016,PAYLOAD,2024-02-20 15:59:47,15.08843212,0.0001521,53.2186,37.1403,100.0187,260.0977,-2.1578e-05,-6.31e-06,0.0,0 STARLINK-4016,1 52603U 22052F   24051.66651804 -.00000631  00000-0 -21578-4 0  9994,2 52603  53.2186  37.1403 0001521 100.0187 260.0977 15.08843212 98302,6917.871,95.437,540.788,538.683,0.0
52603.0,STARLINK-4016,PAYLOAD,2024-02-20 22:21:19,15.08844852,0.0001839,53.2194,35.9515,103.5186,256.6011,-8.1598e-05,-1.587e-05,0.0,0 STARLINK-4016,1 52603U 22052F   24051.93148139 -.00001587  00000-0 -81598-4 0  9995,2 52603  53.2194  35.9515 0001839 103.5186 256.6011 15.08844852 98772,6917.866,95.437,541.003,538.458,0.0
52603.0,STARLINK-4016,PAYLOAD,2024-02-21 06:18:15,15.08840023,0.0001527,53.219,34.4649,96.8309,263.2857,5.9319e-05,6.56e-06,0.0,0 STARLINK-4016,1 52603U 22052F   24052.26267912  .00000656  00000-0  59319-4 0  9993,2 52603  53.2190  34.4649 0001527  96.8309 263.2857 15.08840023 98829,6917.88,95.438,540.802,538.689,0.0
52603.0,STARLINK-4016,PAYLOAD,2024-02-21 15:50:34,15.08835165,0.0001529,53.2192,32.6804,88.4786,271.6381,6.0134e-05,6.69e-06,0.0,0 STARLINK-4016,1 52603U 22052F   24052.66012311  .00000669  00000-0  60134-4 0  9999,2 52603  53.2192  32.6804 0001529  88.4786 271.6381 15.08835165 98457,6917.895,95.438,540.818,538.702,0.0
52603.0,STARLINK-4016,PAYLOAD,2024-02-22 07:44:25,15.08841231,0.0001512,53.2186,29.7053,92.8347,267.2818,7.0817e-05,8.39e-06,0.0,0 STARLINK-4016,1 52603U 22052F   24053.32252109  .00000839  00000-0  70817-4 0  9992,2 52603  53.2186  29.7053 0001512  92.8347 267.2818 15.08841231 98982,6917.877,95.437,540.788,538.696,0.0
52603.0,STARLINK-4016,PAYLOAD,2024-02-22 15:41:21,15.08841752,0.0001483,53.219,28.2166,89.8599,270.2563,-1.3393e-05,-5.01e-06,0.0,0 STARLINK-4016,1 52603U 22052F   24053.65372306 -.00000501  00000-0 -13393-4 0  9994,2 52603  53.2190  28.2166 0001483  89.8599 270.2563 15.08841752 99034,6917.875,95.437,540.766,538.714,0.0
52603.0,STARLINK-4016,PAYLOAD,2024-02-23 02:49:03,15.08829607,9.99e-05,53.2191,26.1325,94.8115,265.2991,0.00022372,3.274e-05,0.0,0 STARLINK-4016,1 52603U 22052F   24054.11740263  .00003274  00000-0  22372-3 0  9991,2 52603  53.2191  26.1325 0000999  94.8115 265.2991 15.08829607 98673,6917.912,95.438,540.468,539.086,0.0
52603.0,STARLINK-4016,PAYLOAD,2024-02-23 04:24:26,15.08845173,0.0001566,53.2194,25.8399,81.9031,278.2139,1.8814e-05,1.1e-07,0.0,0 STARLINK-4016,1 52603U 22052F   24054.18364121  .00000011  00000-0  18814-4 0  9996,2 52603  53.2194  25.8399 0001566  81.9031 278.2139 15.08845173 98683,6917.865,95.437,540.813,538.646,0.0
52603.0,STARLINK-4016,PAYLOAD,2024-02-23 21:53:41,15.0883857,0.0002083,53.2205,22.569,80.5621,279.5606,4.5432e-05,4.35e-06,0.0,0 STARLINK-4016,1 52603U 22052F   24054.91228510  .00000435  00000-0  45432-4 0  9994,2 52603  53.2205  22.5690 0002083  80.5621 279.5606 15.08838570 99226,6917.885,95.438,541.191,538.309,0.0
52603.0,STARLINK-4016,PAYLOAD,2024-02-24 07:25:59,15.08845537,0.0001618,53.2192,20.7805,105.6829,254.4342,4.1772e-05,3.77e-06,0.0,0 STARLINK-4016,1 52603U 22052F   24055.30971803  .00000377  00000-0  41772-4 0  9996,2 52603  53.2192  20.7805 0001618 105.6829 254.4342 15.08845537 98859,6917.863,95.437,540.848,538.609,0.0
52603.0,STARLINK-4016,PAYLOAD,2024-02-24 21:44:28,15.08837055,0.0001515,53.2177,18.1035,78.5341,281.5822,-1.7553e-05,-5.67e-06,0.0,0 STARLINK-4016,1 52603U 22052F   24055.90588742 -.00000567  00000-0 -17553-4 0  9991,2 52603  53.2177  18.1035 0001515  78.5341 281.5822 15.08837055 99379,6917.889,95.438,540.802,538.706,0.0
52603.0,STARLINK-4016,PAYLOAD,2024-02-25 04:06:00,15.08843736,0.0001465,53.2177,16.919,87.5109,272.6051,3.5301e-05,2.74e-06,0.0,0 STARLINK-4016,1 52603U 22052F   24056.17084086  .00000274  00000-0  35301-4 0  9997,2 52603  53.2177  16.9190 0001465  87.5109 272.6051 15.08843736 99416,6917.869,95.437,540.747,538.721,0.0
52603.0,STARLINK-4016,PAYLOAD,2024-02-26 07:07:33,15.08849597,0.0001351,53.2184,11.8592,98.3852,261.7293,6.6435e-05,7.7e-06,0.0,0 STARLINK-4016,1 52603U 22052F   24057.29691338  .00000770  00000-0  66435-4 0  9998,2 52603  53.2184  11.8592 0001351  98.3852 261.7293 15.08849597 99152,6917.851,95.437,540.651,538.781,0.0
52603.0,STARLINK-4016,PAYLOAD,2024-02-27 02:12:16,15.08784203,0.0001497,53.2179,8.2964,78.0625,282.0535,-0.00046028,-7.595e-05,0.0,0 STARLINK-4016,1 52603U 22052F   24058.09185358 -.00007595  00000-0 -46028-3 0  9996,2 52603  53.2179   8.2964 0001497  78.0625 282.0535 15.08784203 99273,6918.051,95.441,540.952,538.88,0.0
52603.0,STARLINK-4016,PAYLOAD,2024-02-27 06:58:23,15.08822694,0.0001484,53.2179,7.4042,57.3805,302.733,-0.00011425,-2.105e-05,0.0,0 STARLINK-4016,1 52603U 22052F   24058.29054603 -.00002105  00000-0 -11425-3 0  9991,2 52603  53.2179   7.4042 0001484  57.3805 302.7330 15.08822694 99301,6917.933,95.439,540.825,538.772,0.0
52603.0,STARLINK-4016,PAYLOAD,2024-02-27 13:19:55,15.08821498,0.0001561,53.2203,6.2158,83.6146,276.5024,-9.9827e-05,-1.876e-05,0.0,0 STARLINK-4016,1 52603U 22052F   24058.55550711 -.00001876  00000-0 -99827-4 0  9998,2 52603  53.2203   6.2158 0001561  83.6146 276.5024 15.08821498 99770,6917.937,95.439,540.882,538.722,0.0
52603.0,STARLINK-4016,PAYLOAD,2024-02-27 21:16:50,15.08835682,0.0001122,53.2182,4.7243,71.3742,288.7372,-9.4161e-05,-1.786e-05,0.0,0 STARLINK-4016,1 52603U 22052F   24058.88669913 -.00001786  00000-0 -94161-4 0  9995,2 52603  53.2182   4.7243 0001122  71.3742 288.7372 15.08835682 99820,6917.894,95.438,540.535,538.982,0.0
52603.0,STARLINK-4016,PAYLOAD,2024-02-28 03:38:22,15.08846129,0.0001639,53.2189,3.5309,75.2972,284.8202,-1.223e-05,-4.83e-06,0.0,0 STARLINK-4016,1 52603U 22052F   24059.15165108 -.00000483  00000-0 -12230-4 0  9993,2 52603  53.2189   3.5309 0001639  75.2972 284.8202 15.08846129 99432,6917.862,95.437,540.86,538.593,0.0
52603.0,STARLINK-4016,PAYLOAD,2024-02-28 13:10:41,15.08846074,0.0001676,53.2197,1.7512,83.8098,276.3085,1.1099e-05,-1.11e-06,0.0,0 STARLINK-4016,1 52603U 22052F   24059.54908904 -.00000111  00000-0  11099-4 0  9994,2 52603  53.2197   1.7512 0001676  83.8098 276.3085 15.08846074 99920,6917.862,95.437,540.886,538.567,0.0
52603.0,STARLINK-4016,PAYLOAD,2024-02-28 19:32:14,15.08835279,0.0001489,53.2184,0.5654,86.9068,273.2095,0.00015413,2.166e-05,0.0,0 STARLINK-4016,1 52603U 22052F   24059.81405227  .00002166  00000-0  15413-3 0  9998,2 52603  53.2184   0.5654 0001489  86.9068 273.2095 15.08835279 99969,6917.895,95.438,540.79,538.73,0.0
52603.0,STARLINK-4016,PAYLOAD,2024-02-29 03:29:09,15.08817539,0.0001799,53.2185,359.0792,78.5427,281.5767,0.00052491,8.071e-05,0.0,0 STARLINK-4016,1 52603U 22052F   24060.14525175  .00008071  00000-0  52491-3 0  9999,2 52603  53.2185 359.0792 0001799  78.5427 281.5767 15.08817539 99580,6917.949,95.439,541.059,538.57,0.0
52603.0,STARLINK-4016,PAYLOAD,2024-02-29 13:01:29,15.08830873,0.0001872,53.2199,357.2915,75.9607,284.1593,0.0001679,2.384e-05,0.0,0 STARLINK-4016,1 52603U 22052F   24060.54269737  .00002384  00000-0  16790-3 0  9995,2 52603  53.2199 357.2915 0001872  75.9607 284.1593 15.08830873100074,6917.908,95.438,541.068,538.478,0.0
52603.0,STARLINK-4016,PAYLOAD,2024-03-01 03:19:56,15.08845095,0.0001721,53.2189,354.6149,87.7755,272.3435,-3.3083e-05,-8.15e-06,0.0,0 STARLINK-4016,1 52603U 22052F   24061.13885409 -.00000815  00000-0 -33083-4 0  9995,2 52603  53.2189 354.6149 0001721  87.7755 272.3435 15.08845095 99737,6917.865,95.437,540.92,538.539,0.0
52603.0,STARLINK-4016,PAYLOAD,2024-03-01 12:52:15,15.08845621,0.0001727,53.219,352.8307,87.0513,273.0676,7.1807e-06,-1.74e-06,0.0,0 STARLINK-4016,1 52603U 22052F   24061.53629080 -.00000174  00000-0  71807-5 0  9994,2 52603  53.2190 352.8307 0001727  87.0513 273.0676 15.08845621100223,6917.863,95.437,540.923,538.533,0.0
52603.0,STARLINK-4016,PAYLOAD,2024-03-02 01:35:19,15.08853947,0.0001626,53.2188,350.4524,104.8604,255.2568,-2.9309e-05,-7.55e-06,0.0,0 STARLINK-4016,1 52603U 22052F   24062.06620330 -.00000755  00000-0 -29309-4 0  9997,2 52603  53.2188 350.4524 0001626 104.8604 255.2568 15.08853947 99872,6917.838,95.437,540.828,538.578,0.0
52603.0,STARLINK-4016,PAYLOAD,2024-03-02 22:15:21,15.0883601,0.0001537,53.2188,346.5874,80.9752,279.1414,4.232e-05,3.86e-06,0.0,0 STARLINK-4016,1 52603U 22052F   24062.92733137  .00000386  00000-0  42320-4 0  9998,2 52603  53.2188 346.5874 0001537  80.9752 279.1414 15.08836010100437,6917.893,95.438,540.821,538.694,0.0
52603.0,STARLINK-4016,PAYLOAD,2024-03-03 01:26:07,15.08837486,0.0001557,53.2189,345.9897,94.6972,265.4198,3.3422e-05,2.44e-06,0.0,0 STARLINK-4016,1 52603U 22052F   24063.05980970  .00000244  00000-0  33422-4 0  9998,2 52603  53.2189 345.9897 0001557  94.6972 265.4198 15.08837486100024,6917.888,95.438,540.83,538.676,0.0
52603.0,STARLINK-4016,PAYLOAD,2024-03-03 04:36:53,15.08842626,0.0001514,53.2184,345.3951,98.7874,261.329,1.3476e-05,-7.3e-07,0.0,0 STARLINK-4016,1 52603U 22052F   24063.19228746 -.00000073  00000-0  13476-4 0  9997,2 52603  53.2184 345.3951 0001514  98.7874 261.3290 15.08842626100472,6917.872,95.437,540.785,538.69,0.0
52603.0,STARLINK-4016,PAYLOAD,2024-03-04 10:49:12,15.08856221,0.0001577,53.2197,339.7486,96.6326,263.4846,6.0789e-05,6.8e-06,0.0,0 STARLINK-4016,1 52603U 22052F   24064.45083416  .00000680  00000-0  60789-4 0  9992,2 52603  53.2197 339.7486 0001577  96.6326 263.4846 15.08856221100234,6917.831,95.437,540.787,538.605,0.0
52603.0,STARLINK-4016,PAYLOAD,2024-03-04 21:56:57,15.08812335,0.0001347,53.2184,337.6623,78.1168,281.9975,-0.0001762,-3.089e-05,0.0,0 STARLINK-4016,1 52603U 22052F   24064.91455293 -.00003089  00000-0 -17620-3 0  9992,2 52603  53.2184 337.6623 0001347  78.1168 281.9975 15.08812335100735,6917.965,95.439,540.762,538.898,0.0
